{"type": "FeatureCollection", "features": [ {"type": "Feature", "properties": {"norad_id": 31441, "name": "FENGYUN 1C DEB", "group": "fengyun-1c-debris", "lat": 53.495416395466826, "lon": 57.887211520196516, "alt_km": 705.652444517118, "timestamp": "2025-12-26T05:31:12.789797+00:00", "meta": {"OBJECT_NAME": "FENGYUN 1C DEB", "OBJECT_ID": "1999-025BUD", "EPOCH": "2025-12-24T20:24:41.777856", "MEAN_MOTION": 14.76048225, "ECCENTRICITY": 0.01007481, "INCLINATION": 99.3118, "RA_OF_ASC_NODE": 223.4902, "ARG_OF_PERICENTER": 298.4244, "MEAN_ANOMALY": 60.6836, "EPHEMERIS_TYPE": 0, "CLASSIFICATION_TYPE": "U", "NORAD_CAT_ID": 31441, "ELEMENT_SET_NO": 999, "REV_AT_EPOCH": 64269, "BSTAR": 0.0057457348, "MEAN_MOTION_DOT": 0.00043215, "MEAN_MOTION_DDOT": 0}, "tle": {"line1": "1 31441U 99025BUD 25358.85048354  .00043215  00000+0  57457-2 0  9992", "line2": "2 31441  99.3118 223.4902 0100748 298.4244  60.6836 14.76048225642696"}}, "geometry": {"type": "Point", "coordinates": [57.887211520196516, 53.495416395466826]}}, {"type": "Feature", "properties": {"norad_id": 31442, "name": "FENGYUN 1C DEB", "group": "fengyun-1c-debris", "lat": -73.51325346027437, "lon": -124.44549938683446, "alt_km": 772.5346295215968, "timestamp": "2025-12-26T05:31:12.789807+00:00", "meta": {"OBJECT_NAME": "FENGYUN 1C DEB", "OBJECT_ID": "1999-025BUE", "EPOCH": "2025-12-24T12:08:00.229344", "MEAN_MOTION": 14.33951774, "ECCENTRICITY": 0.00785047, "INCLINATION": 98.5303, "RA_OF_ASC_NODE": 84.326, "ARG_OF_PERICENTER": 337.665, "MEAN_ANOMALY": 22.1123, "EPHEMERIS_TYPE": 0, "CLASSIFICATION_TYPE": "U", "NORAD_CAT_ID": 31442, "ELEMENT_SET_NO": 999, "REV_AT_EPOCH": 97529, "BSTAR": 0.00033349655, "MEAN_MOTION_DOT": 9.19e-06, "MEAN_MOTION_DDOT": 0}, "tle": {"line1": "1 31442U 99025BUE 25358.50555821  .00000919  00000+0  33350-3 0  9998", "line2": "2 31442  98.5303  84.3260 0078504 337.6650  22.1123 14.33951774975298"}}, "geometry": {"type": "Point", "coordinates": [-124.44549938683446, -73.51325346027437]}}, {"type": "Feature", "properties": {"norad_id": 31443, "name": "FENGYUN 1C DEB", "group": "fengyun-1c-debris", "lat": -39.388935418723506, "lon": 108.58884695429482, "alt_km": 752.4740506518974, "timestamp": "2025-12-26T05:31:12.789817+00:00", "meta": {"OBJECT_NAME": "FENGYUN 1C DEB", "OBJECT_ID": "1999-025BUF", "EPOCH": "2025-12-25T13:07:42.426912", "MEAN_MOTION": 14.48809364, "ECCENTRICITY": 0.0191122, "INCLINATION": 99.21, "RA_OF_ASC_NODE": 100.1881, "ARG_OF_PERICENTER": 60.1891, "MEAN_ANOMALY": 301.8152, "EPHEMERIS_TYPE": 0, "CLASSIFICATION_TYPE": "U", "NORAD_CAT_ID": 31443, "ELEMENT_SET_NO": 999, "REV_AT_EPOCH": 67127, "BSTAR": 0.001089, "MEAN_MOTION_DOT": 5.132e-05, "MEAN_MOTION_DDOT": 0}, "tle": {"line1": "1 31443U 99025BUF 25359.54701883  .00005132  00000+0  10890-2 0  9990", "line2": "2 31443  99.2100 100.1881 0191122  60.1891 301.8152 14.48809364671278"}}, "geometry": {"type": "Point", "coordinates": [108.58884695429482, -39.388935418723506]}}, {"type": "Feature", "properties": {"norad_id": 31444, "name": "FENGYUN 1C DEB", "group": "fengyun-1c-debris", "lat": -62.799356229003635, "lon": 105.71715476718155, "alt_km": 704.6608892358463, "timestamp": "2025-12-26T05:31:12.789827+00:00", "meta": {"OBJECT_NAME": "FENGYUN 1C DEB", "OBJECT_ID": "1999-025BUG", "EPOCH": "2025-12-22T02:24:16.096320", "MEAN_MOTION": 14.70070692, "ECCENTRICITY": 0.00626396, "INCLINATION": 98.9296, "RA_OF_ASC_NODE": 299.0143, "ARG_OF_PERICENTER": 44.119, "MEAN_ANOMALY": 316.4986, "EPHEMERIS_TYPE": 0, "CLASSIFICATION_TYPE": "U", "NORAD_CAT_ID": 31444, "ELEMENT_SET_NO": 999, "REV_AT_EPOCH": 97626, "BSTAR": 0.0017329246, "MEAN_MOTION_DOT": 0.00010681, "MEAN_MOTION_DDOT": 0}, "tle": {"line1": "1 31444U 99025BUG 25356.10018630  .00010681  00000+0  17329-2 0  9990", "line2": "2 31444  98.9296 299.0143 0062639  44.1190 316.4986 14.70070692976267"}}, "geometry": {"type": "Point", "coordinates": [105.71715476718155, -62.799356229003635]}}, {"type": "Feature", "properties": {"norad_id": 31447, "name": "FENGYUN 1C DEB", "group": "fengyun-1c-debris", "lat": -30.355837209832142, "lon": -143.5208562494635, "alt_km": 859.2315172231793, "timestamp": "2025-12-26T05:31:12.789837+00:00", "meta": {"OBJECT_NAME": "FENGYUN 1C DEB", "OBJECT_ID": "1999-025BUK", "EPOCH": "2025-12-14T21:01:38.356896", "MEAN_MOTION": 14.2403744, "ECCENTRICITY": 0.02304397, "INCLINATION": 98.9919, "RA_OF_ASC_NODE": 30.1793, "ARG_OF_PERICENTER": 349.1545, "MEAN_ANOMALY": 10.471, "EPHEMERIS_TYPE": 0, "CLASSIFICATION_TYPE": "U", "NORAD_CAT_ID": 31447, "ELEMENT_SET_NO": 999, "REV_AT_EPOCH": 64882, "BSTAR": 0.00018562598, "MEAN_MOTION_DOT": 5.08e-06, "MEAN_MOTION_DDOT": 0}, "tle": {"line1": "1 31447U 99025BUK 25348.87613839  .00000508  00000+0  18563-3 0  9999", "line2": "2 31447  98.9919  30.1793 0230439 349.1545  10.4710 14.24037440648821"}}, "geometry": {"type": "Point", "coordinates": [-143.5208562494635, -30.355837209832142]}}, {"type": "Feature", "properties": {"norad_id": 31448, "name": "FENGYUN 1C DEB", "group": "fengyun-1c-debris", "lat": 50.02938621031996, "lon": 0.8803587815728023, "alt_km": 811.1315722816371, "timestamp": "2025-12-26T05:31:12.789846+00:00", "meta": {"OBJECT_NAME": "FENGYUN 1C DEB", "OBJECT_ID": "1999-025BUL", "EPOCH": "2025-12-20T18:05:54.538080", "MEAN_MOTION": 14.27837488, "ECCENTRICITY": 0.00593925, "INCLINATION": 98.4998, "RA_OF_ASC_NODE": 5.8293, "ARG_OF_PERICENTER": 180.4564, "MEAN_ANOMALY": 179.6573, "EPHEMERIS_TYPE": 0, "CLASSIFICATION_TYPE": "U", "NORAD_CAT_ID": 31448, "ELEMENT_SET_NO": 999, "REV_AT_EPOCH": 64418, "BSTAR": 0.00043686395, "MEAN_MOTION_DOT": 1.058e-05, "MEAN_MOTION_DDOT": 0}, "tle": {"line1": "1 31448U 99025BUL 25354.75410345  .00001058  00000+0  43686-3 0  9996", "line2": "2 31448  98.4998   5.8293 0059392 180.4564 179.6573 14.27837488644185"}}, "geometry": {"type": "Point", "coordinates": [0.8803587815728023, 50.02938621031996]}}, {"type": "Feature", "properties": {"norad_id": 31449, "name": "FENGYUN 1C DEB", "group": "fengyun-1c-debris", "lat": -37.45635957131935, "lon": 65.21816797365935, "alt_km": 790.48853579343, "timestamp": "2025-12-26T05:31:12.789856+00:00", "meta": {"OBJECT_NAME": "FENGYUN 1C DEB", "OBJECT_ID": "1999-025BUM", "EPOCH": "2025-12-20T10:40:43.619520", "MEAN_MOTION": 14.33719628, "ECCENTRICITY": 0.01441603, "INCLINATION": 98.5539, "RA_OF_ASC_NODE": 52.876, "ARG_OF_PERICENTER": 245.7554, "MEAN_ANOMALY": 112.8511, "EPHEMERIS_TYPE": 0, "CLASSIFICATION_TYPE": "U", "NORAD_CAT_ID": 31449, "ELEMENT_SET_NO": 999, "REV_AT_EPOCH": 97747, "BSTAR": 0.00016710121, "MEAN_MOTION_DOT": 4.73e-06, "MEAN_MOTION_DDOT": 0}, "tle": {"line1": "1 31449U 99025BUM 25354.44494930  .00000473  00000+0  16710-3 0  9993", "line2": "2 31449  98.5539  52.8760 0144160 245.7554 112.8511 14.33719628977475"}}, "geometry": {"type": "Point", "coordinates": [65.21816797365935, -37.45635957131935]}}, {"type": "Feature", "properties": {"norad_id": 31451, "name": "FENGYUN 1C DEB", "group": "fengyun-1c-debris", "lat": -17.92803088061253, "lon": -140.8306611400316, "alt_km": 831.0164920932084, "timestamp": "2025-12-26T05:31:12.789866+00:00", "meta": {"OBJECT_NAME": "FENGYUN 1C DEB", "OBJECT_ID": "1999-025BUP", "EPOCH": "2025-12-24T01:46:07.992768", "MEAN_MOTION": 14.13639411, "ECCENTRICITY": 0.00317113, "INCLINATION": 98.7622, "RA_OF_ASC_NODE": 39.9171, "ARG_OF_PERICENTER": 179.5002, "MEAN_ANOMALY": 210.8483, "EPHEMERIS_TYPE": 0, "CLASSIFICATION_TYPE": "U", "NORAD_CAT_ID": 31451, "ELEMENT_SET_NO": 999, "REV_AT_EPOCH": 96170, "BSTAR": 0.00034326728, "MEAN_MOTION_DOT": 6.08e-06, "MEAN_MOTION_DDOT": 0}, "tle": {"line1": "1 31451U 99025BUP 25358.07370362  .00000608  00000+0  34327-3 0  9995", "line2": "2 31451  98.7622  39.9171 0031711 179.5002 210.8483 14.13639411961709"}}, "geometry": {"type": "Point", "coordinates": [-140.8306611400316, -17.92803088061253]}}, {"type": "Feature", "properties": {"norad_id": 31452, "name": "FENGYUN 1C DEB", "group": "fengyun-1c-debris", "lat": 9.31605816044474, "lon": 168.2100378186645, "alt_km": 838.2527167416301, "timestamp": "2025-12-26T05:31:12.789876+00:00", "meta": {"OBJECT_NAME": "FENGYUN 1C DEB", "OBJECT_ID": "1999-025BUQ", "EPOCH": "2025-12-25T04:57:57.289248", "MEAN_MOTION": 14.15185497, "ECCENTRICITY": 0.0041108, "INCLINATION": 98.6598, "RA_OF_ASC_NODE": 345.7843, "ARG_OF_PERICENTER": 92.9354, "MEAN_ANOMALY": 267.6526, "EPHEMERIS_TYPE": 0, "CLASSIFICATION_TYPE": "U", "NORAD_CAT_ID": 31452, "ELEMENT_SET_NO": 999, "REV_AT_EPOCH": 96382, "BSTAR": 0.00036224, "MEAN_MOTION_DOT": 6.67e-06, "MEAN_MOTION_DDOT": 0}, "tle": {"line1": "1 31452U 99025BUQ 25359.20691307  .00000667  00000+0  36224-3 0  9990", "line2": "2 31452  98.6598 345.7843 0041108  92.9354 267.6526 14.15185497963829"}}, "geometry": {"type": "Point", "coordinates": [168.2100378186645, 9.31605816044474]}}, {"type": "Feature", "properties": {"norad_id": 31455, "name": "FENGYUN 1C DEB", "group": "fengyun-1c-debris", "lat": -34.332371675972, "lon": -6.215767943099812, "alt_km": 752.1313657871478, "timestamp": "2025-12-26T05:31:12.789886+00:00", "meta": {"OBJECT_NAME": "FENGYUN 1C DEB", "OBJECT_ID": "1999-025BUT", "EPOCH": "2025-12-22T16:36:48.499200", "MEAN_MOTION": 14.1144215, "ECCENTRICITY": 0.02182431, "INCLINATION": 98.575, "RA_OF_ASC_NODE": 344.4862, "ARG_OF_PERICENTER": 22.9407, "MEAN_ANOMALY": 338.1335, "EPHEMERIS_TYPE": 0, "CLASSIFICATION_TYPE": "U", "NORAD_CAT_ID": 31455, "ELEMENT_SET_NO": 999, "REV_AT_EPOCH": 96244, "BSTAR": 0.00028245585, "MEAN_MOTION_DOT": 5.98e-06, "MEAN_MOTION_DDOT": 0}, "tle": {"line1": "1 31455U 99025BUT 25356.69222800  .00000598  00000+0  28246-3 0  9999", "line2": "2 31455  98.5750 344.4862 0218243  22.9407 338.1335 14.11442150962443"}}, "geometry": {"type": "Point", "coordinates": [-6.215767943099812, -34.332371675972]}}]}